GLOBALSTAR M001         
1 25162U 98008A   24162.62524682 -.00000054  00000+0  33045-3 0  9998
2 25162  52.0050 334.6638 0001889 158.2311 278.0110 12.38185316197688
GLOBALSTAR M004         
1 25163U 98008B   24162.57829074 -.00000060  00000+0  24319-3 0  9997
2 25163  51.9991 107.8118 0002616 180.6864 350.9816 12.63361652214719
GLOBALSTAR M002         
1 25164U 98008C   24162.48229772 -.00000092  00000+0 -29676-3 0  9994
2 25164  52.0017  92.1847 0000862 169.3194 190.7645 11.61502740140874
GLOBALSTAR M003         
1 25165U 98008D   24162.63271118  .00000043  00000+0  14157-2 0  9994
2 25165  51.9863 117.5807 0007771 267.1690 264.1712 12.12009447188162
GLOBALSTAR M014         
1 25306U 98023A   24162.58746400 -.00000071  00000+0  12352-3 0  9991
2 25306  51.9867  22.9590 0001583  54.0555 345.8234 11.65468005147841
GLOBALSTAR M006         
1 25307U 98023B   24162.43685648 -.00000043  00000+0  66898-3 0  9995
2 25307  51.9957  61.9180 0003652 145.6838  25.4596 11.58165155173753
GLOBALSTAR M015         
1 25308U 98023C   24162.64862648 -.00000079  00000+0 -11530-3 0  9999
2 25308  51.9786 142.8329 0012305 135.9150  35.7766 11.48853077151375
GLOBALSTAR M008         
1 25309U 98023D   24162.40987946 -.00000063  00000+0  26041-3 0  9998
2 25309  51.9943 195.9095 0002578 116.3367 257.5814 12.36044021191870
